COSMOS 1933             
1 18958U 88020A   26003.91290860  .00007118  00000+0  35512-3 0  9990
2 18958  82.5155 314.9678 0006133  71.8915 288.2986 15.17349484 40408
SL-3 R/B                
1 19046U 88032B   26003.93162348  .00008197  00000+0  39058-3 0  9990
2 19046  97.5097 347.5039 0028464  99.0893 261.3564 15.19018999 42276
SL-16 R/B               
1 19120U 88039B   26003.94301722  .00000257  00000+0  14419-3 0  9995
2 19120  71.0135 205.4524 0019560  78.1141 282.2176 14.19602132949196
COSMOS 1953             
1 19210U 88050A   25363.34859606  .00008063  00000+0  30114-3 0  9992
2 19210  82.5080 228.9139 0012535  18.6006 341.5688 15.27141359 27045
SL-8 R/B                
1 19257U 88053B   26003.94077167  .00000444  00000+0  15242-3 0  9998
2 19257  74.0462 231.8034 0019032  67.5859  59.8958 14.38875620967285
COSMOS 1975             
1 19573U 88093A   26003.93524092  .00010232  00000+0  38580-3 0  9992
2 19573  82.5186 182.6028 0012541  42.4593 317.7613 15.26849995  9526
SL-14 R/B               
1 19574U 88093B   26003.81173463  .00000967  00000+0  10871-3 0  9999
2 19574  82.5318 102.9553 0019329 251.5512 229.0075 14.85579800991400
SL-16 R/B               
1 19650U 88102B   26003.92056430 -.00000171  00000+0 -62252-4 0  9991
2 19650  71.0003 287.7735 0011927 113.4657 246.7722 14.16142052917722
INTERCOSMOS 24          
1 20261U 89080A   26003.67034662  .00000813  00000+0  23038-3 0  9991
2 20261  82.6069 146.6966 1188896  83.6671 289.8179 12.59476233658616
SL-14 R/B               
1 20262U 89080C   26003.82561992  .00000503  00000+0  15040-3 0  9990
2 20262  82.5913 214.8402 1230144 333.1139  21.0957 12.50432446652043
DELTA 1 R/B             
1 20323U 89089B   26003.57509146  .00000707  00000+0  18399-3 0  9998
2 20323  97.0739 221.3511 0068371 329.5269  30.1963 14.50594932886290
ARIANE 40 R/B           
1 20443U 90005H   26003.90782566  .00000561  00000+0  19214-3 0  9992
2 20443  98.3209  66.4559 0010760  44.6443 315.5610 14.39818514883486
